ATLAS CENTAUR R/B       
1 06155U 72065B   25330.71062970  .00001395  00000+0  19441-3 0  9991
2 06155  35.0002 189.0901 0034359 225.0804 134.7106 14.77346653826028
SL-8 R/B                
1 08459U 75112B   25330.76164933  .00000311  00000+0  11116-3 0  9991
2 08459  74.0602 208.2466 0016220 321.5966  38.4032 14.38130230617074
SL-3 R/B                
1 10114U 77057B   25330.79925837  .00014205  00000+0  33038-3 0  9997
2 10114  97.5687 133.5137 0006624 300.1189  59.9401 15.42411556652458
SEASAT 1                
1 10967U 78064A   25330.77143637  .00000517  00000+0  18340-3 0  9990
2 10967 108.0090 269.5358 0002024 251.3416 108.7510 14.46033974491637
SL-14 R/B               
1 11267U 79011B   25330.68962243  .00000720  00000+0  68798-4 0  9998
2 11267  82.5248 194.2649 0017239  45.3919 314.8703 14.91741770513428
SL-8 R/B                
1 11574U 79089B   25330.32787868  .00000386  00000+0  12479-3 0  9995
2 11574  74.0685 282.3536 0014593 123.6653 236.5897 14.42266505421201
SL-14 R/B               
1 11672U 80005B   25330.76928144  .00000802  00000+0  78838-4 0  9991
2 11672  82.5161  44.8437 0016716 142.6067 217.6318 14.90762397461152
SL-8 R/B                
1 12139U 81003B   25330.66499935  .00023517  00000+0  63309-3 0  9993
2 12139  82.9306  24.9908 0281664 175.8139 184.5551 15.06271449299142
SL-3 R/B                
1 12465U 81046B   25330.76875767  .00012742  00000+0  32546-3 0  9991
2 12465  81.2336  53.0345 0019997  19.9336 340.2682 15.39134050422586
SL-3 R/B                
1 12904U 81103B   25330.79588358  .00007564  00000+0  35004-3 0  9991
2 12904  81.1593 334.0246 0011427 275.8614  84.1314 15.19948571957591
SL-3 R/B                
1 13068U 82013B   25330.78849664  .00005286  00000+0  23646-3 0  9991
2 13068  81.1746 281.2776 0023104 162.6078 197.5950 15.20872854388704
SL-3 R/B                
1 13154U 82039B   25330.79608037  .00003639  00000+0  22396-3 0  9994
2 13154  81.1753 334.4353 0030958 305.8128  54.0221 15.09385793366119
