CCSDS_OMM_VERS = 2.0
CREATION_DATE  = 
ORIGINATOR     = 

OBJECT_NAME    = ATLAS CENTAUR R/B
OBJECT_ID      = 1972-065B
CENTER_NAME    = EARTH
REF_FRAME      = TEME
TIME_SYSTEM    = UTC
MEAN_ELEMENT_THEORY = SGP/SGP4

EPOCH          = 2025-11-26T17:03:18.406080
MEAN_MOTION    = 14.77346653
ECCENTRICITY   = .0034359
INCLINATION    = 35.0002
RA_OF_ASC_NODE = 189.0901
ARG_OF_PERICENTER = 225.0804
MEAN_ANOMALY   = 134.7106

EPHEMERIS_TYPE = 0
CLASSIFICATION_TYPE = U
NORAD_CAT_ID   = 6155
ELEMENT_SET_NO = 999
REV_AT_EPOCH   = 82602
BSTAR          = .19441E-3
MEAN_MOTION_DOT = .1395E-4
MEAN_MOTION_DDOT = 0

CCSDS_OMM_VERS = 2.0
CREATION_DATE  = 
ORIGINATOR     = 

OBJECT_NAME    = SL-8 R/B
OBJECT_ID      = 1975-112B
CENTER_NAME    = EARTH
REF_FRAME      = TEME
TIME_SYSTEM    = UTC
MEAN_ELEMENT_THEORY = SGP/SGP4

EPOCH          = 2025-11-26T18:16:46.502112
MEAN_MOTION    = 14.38130230
ECCENTRICITY   = .001622
INCLINATION    = 74.0602
RA_OF_ASC_NODE = 208.2466
ARG_OF_PERICENTER = 321.5966
MEAN_ANOMALY   = 38.4032

EPHEMERIS_TYPE = 0
CLASSIFICATION_TYPE = U
NORAD_CAT_ID   = 8459
ELEMENT_SET_NO = 999
REV_AT_EPOCH   = 61707
BSTAR          = .11116E-3
MEAN_MOTION_DOT = .311E-5
MEAN_MOTION_DDOT = 0

CCSDS_OMM_VERS = 2.0
CREATION_DATE  = 
ORIGINATOR     = 

OBJECT_NAME    = SL-3 R/B
OBJECT_ID      = 1977-057B
CENTER_NAME    = EARTH
REF_FRAME      = TEME
TIME_SYSTEM    = UTC
MEAN_ELEMENT_THEORY = SGP/SGP4

EPOCH          = 2025-11-26T19:10:55.923168
MEAN_MOTION    = 15.42411556
ECCENTRICITY   = .0006624
INCLINATION    = 97.5687
RA_OF_ASC_NODE = 133.5137
ARG_OF_PERICENTER = 300.1189
MEAN_ANOMALY   = 59.9401

EPHEMERIS_TYPE = 0
CLASSIFICATION_TYPE = U
NORAD_CAT_ID   = 10114
ELEMENT_SET_NO = 999
REV_AT_EPOCH   = 65245
BSTAR          = .33038E-3
MEAN_MOTION_DOT = .14205E-3
MEAN_MOTION_DDOT = 0

CCSDS_OMM_VERS = 2.0
CREATION_DATE  = 
ORIGINATOR     = 

OBJECT_NAME    = SEASAT 1
OBJECT_ID      = 1978-064A
CENTER_NAME    = EARTH
REF_FRAME      = TEME
TIME_SYSTEM    = UTC
MEAN_ELEMENT_THEORY = SGP/SGP4

EPOCH          = 2025-11-26T18:30:52.102368
MEAN_MOTION    = 14.46033974
ECCENTRICITY   = .0002024
INCLINATION    = 108.0090
RA_OF_ASC_NODE = 269.5358
ARG_OF_PERICENTER = 251.3416
MEAN_ANOMALY   = 108.7510

EPHEMERIS_TYPE = 0
CLASSIFICATION_TYPE = U
NORAD_CAT_ID   = 10967
ELEMENT_SET_NO = 999
REV_AT_EPOCH   = 49163
BSTAR          = .1834E-3
MEAN_MOTION_DOT = .517E-5
MEAN_MOTION_DDOT = 0

CCSDS_OMM_VERS = 2.0
CREATION_DATE  = 
ORIGINATOR     = 

OBJECT_NAME    = SL-14 R/B
OBJECT_ID      = 1979-011B
CENTER_NAME    = EARTH
REF_FRAME      = TEME
TIME_SYSTEM    = UTC
MEAN_ELEMENT_THEORY = SGP/SGP4

EPOCH          = 2025-11-26T16:33:03.377952
MEAN_MOTION    = 14.91741770
ECCENTRICITY   = .0017239
INCLINATION    = 82.5248
RA_OF_ASC_NODE = 194.2649
ARG_OF_PERICENTER = 45.3919
MEAN_ANOMALY   = 314.8703

EPHEMERIS_TYPE = 0
CLASSIFICATION_TYPE = U
NORAD_CAT_ID   = 11267
ELEMENT_SET_NO = 999
REV_AT_EPOCH   = 51342
BSTAR          = .68798E-4
MEAN_MOTION_DOT = .72E-5
MEAN_MOTION_DDOT = 0

CCSDS_OMM_VERS = 2.0
CREATION_DATE  = 
ORIGINATOR     = 

OBJECT_NAME    = SL-8 R/B
OBJECT_ID      = 1979-089B
CENTER_NAME    = EARTH
REF_FRAME      = TEME
TIME_SYSTEM    = UTC
MEAN_ELEMENT_THEORY = SGP/SGP4

EPOCH          = 2025-11-26T07:52:08.717952
MEAN_MOTION    = 14.42266505
ECCENTRICITY   = .00145935
INCLINATION    = 74.0685
RA_OF_ASC_NODE = 282.3536
ARG_OF_PERICENTER = 123.6653
MEAN_ANOMALY   = 236.5897

EPHEMERIS_TYPE = 0
CLASSIFICATION_TYPE = U
NORAD_CAT_ID   = 11574
ELEMENT_SET_NO = 999
REV_AT_EPOCH   = 42120
BSTAR          = .12478774E-3
MEAN_MOTION_DOT = .386E-5
MEAN_MOTION_DDOT = 0

CCSDS_OMM_VERS = 2.0
CREATION_DATE  = 
ORIGINATOR     = 

OBJECT_NAME    = SL-14 R/B
OBJECT_ID      = 1980-005B
CENTER_NAME    = EARTH
REF_FRAME      = TEME
TIME_SYSTEM    = UTC
MEAN_ELEMENT_THEORY = SGP/SGP4

EPOCH          = 2025-11-26T18:27:45.916416
MEAN_MOTION    = 14.90762397
ECCENTRICITY   = .0016716
INCLINATION    = 82.5161
RA_OF_ASC_NODE = 44.8437
ARG_OF_PERICENTER = 142.6067
MEAN_ANOMALY   = 217.6318

EPHEMERIS_TYPE = 0
CLASSIFICATION_TYPE = U
NORAD_CAT_ID   = 11672
ELEMENT_SET_NO = 999
REV_AT_EPOCH   = 46115
BSTAR          = .78838E-4
MEAN_MOTION_DOT = .802E-5
MEAN_MOTION_DDOT = 0

CCSDS_OMM_VERS = 2.0
CREATION_DATE  = 
ORIGINATOR     = 

OBJECT_NAME    = SL-8 R/B
OBJECT_ID      = 1981-003B
CENTER_NAME    = EARTH
REF_FRAME      = TEME
TIME_SYSTEM    = UTC
MEAN_ELEMENT_THEORY = SGP/SGP4

EPOCH          = 2025-11-26T15:57:35.943840
MEAN_MOTION    = 15.06271449
ECCENTRICITY   = .0281664
INCLINATION    = 82.9306
RA_OF_ASC_NODE = 24.9908
ARG_OF_PERICENTER = 175.8139
MEAN_ANOMALY   = 184.5551

EPHEMERIS_TYPE = 0
CLASSIFICATION_TYPE = U
NORAD_CAT_ID   = 12139
ELEMENT_SET_NO = 999
REV_AT_EPOCH   = 29914
BSTAR          = .63309E-3
MEAN_MOTION_DOT = .23517E-3
MEAN_MOTION_DDOT = 0

CCSDS_OMM_VERS = 2.0
CREATION_DATE  = 
ORIGINATOR     = 

OBJECT_NAME    = SL-3 R/B
OBJECT_ID      = 1981-046B
CENTER_NAME    = EARTH
REF_FRAME      = TEME
TIME_SYSTEM    = UTC
MEAN_ELEMENT_THEORY = SGP/SGP4

EPOCH          = 2025-11-26T18:27:00.662688
MEAN_MOTION    = 15.39134050
ECCENTRICITY   = .0019997
INCLINATION    = 81.2336
RA_OF_ASC_NODE = 53.0345
ARG_OF_PERICENTER = 19.9336
MEAN_ANOMALY   = 340.2682

EPHEMERIS_TYPE = 0
CLASSIFICATION_TYPE = U
NORAD_CAT_ID   = 12465
ELEMENT_SET_NO = 999
REV_AT_EPOCH   = 42258
BSTAR          = .32546E-3
MEAN_MOTION_DOT = .12742E-3
MEAN_MOTION_DDOT = 0

CCSDS_OMM_VERS = 2.0
CREATION_DATE  = 
ORIGINATOR     = 

OBJECT_NAME    = SL-3 R/B
OBJECT_ID      = 1981-103B
CENTER_NAME    = EARTH
REF_FRAME      = TEME
TIME_SYSTEM    = UTC
MEAN_ELEMENT_THEORY = SGP/SGP4

EPOCH          = 2025-11-26T19:06:04.341312
MEAN_MOTION    = 15.19948571
ECCENTRICITY   = .0011427
INCLINATION    = 81.1593
RA_OF_ASC_NODE = 334.0246
ARG_OF_PERICENTER = 275.8614
MEAN_ANOMALY   = 84.1314

EPHEMERIS_TYPE = 0
CLASSIFICATION_TYPE = U
NORAD_CAT_ID   = 12904
ELEMENT_SET_NO = 999
REV_AT_EPOCH   = 95759
BSTAR          = .35004E-3
MEAN_MOTION_DOT = .7564E-4
MEAN_MOTION_DDOT = 0

CCSDS_OMM_VERS = 2.0
CREATION_DATE  = 
ORIGINATOR     = 

OBJECT_NAME    = SL-3 R/B
OBJECT_ID      = 1982-013B
CENTER_NAME    = EARTH
REF_FRAME      = TEME
TIME_SYSTEM    = UTC
MEAN_ELEMENT_THEORY = SGP/SGP4

EPOCH          = 2025-11-26T18:55:26.109696
MEAN_MOTION    = 15.20872854
ECCENTRICITY   = .0023104
INCLINATION    = 81.1746
RA_OF_ASC_NODE = 281.2776
ARG_OF_PERICENTER = 162.6078
MEAN_ANOMALY   = 197.5950

EPHEMERIS_TYPE = 0
CLASSIFICATION_TYPE = U
NORAD_CAT_ID   = 13068
ELEMENT_SET_NO = 999
REV_AT_EPOCH   = 38870
BSTAR          = .23646E-3
MEAN_MOTION_DOT = .5286E-4
MEAN_MOTION_DDOT = 0

CCSDS_OMM_VERS = 2.0
CREATION_DATE  = 
ORIGINATOR     = 

OBJECT_NAME    = SL-3 R/B
OBJECT_ID      = 1982-039B
CENTER_NAME    = EARTH
REF_FRAME      = TEME
TIME_SYSTEM    = UTC
MEAN_ELEMENT_THEORY = SGP/SGP4

EPOCH          = 2025-11-26T19:06:21.343968
MEAN_MOTION    = 15.09385793
ECCENTRICITY   = .0030958
INCLINATION    = 81.1753
RA_OF_ASC_NODE = 334.4353
ARG_OF_PERICENTER = 305.8128
MEAN_ANOMALY   = 54.0221

EPHEMERIS_TYPE = 0
CLASSIFICATION_TYPE = U
NORAD_CAT_ID   = 13154
ELEMENT_SET_NO = 999
REV_AT_EPOCH   = 36611
BSTAR          = .22396E-3
MEAN_MOTION_DOT = .3639E-4
MEAN_MOTION_DDOT = 0

